{
  "type": "FeatureCollection",
  "features": [
    {
      "type": "Feature",
      "properties": {
        "norad_id": 34846,
        "name": "COSMOS 2251 DEB",
        "group": "cosmos-2251-debris",
        "lat": -31.10456313542613,
        "lon": 97.95533684649082,
        "alt_km": 750.4319643715553,
        "timestamp": "2025-12-09T09:46:48.040983+00:00",
        "meta_object_name": "COSMOS 2251 DEB",
        "meta_object_id": "1993-036ABQ",
        "meta_epoch": "2025-12-08T22:50:43.848096",
        "meta_mean_motion": 14.47175679,
        "meta_eccentricity": 0.0026029,
        "meta_inclination": 74.031,
        "meta_ra_of_asc_node": 268.8582,
        "meta_arg_of_pericenter": 335.7831,
        "meta_mean_anomaly": 24.2102,
        "meta_ephemeris_type": 0,
        "meta_classification_type": "U",
        "meta_norad_cat_id": 34846,
        "meta_element_set_no": 999,
        "meta_rev_at_epoch": 87349,
        "meta_bstar": 0.0012224,
        "meta_mean_motion_dot": 4.457e-05,
        "meta_mean_motion_ddot": 0,
        "tle_line1": "1 34846U 93036ABQ 25342.95189639  .00004457  00000+0  12224-2 0  9994",
        "tle_line2": "2 34846  74.0310 268.8582 0026029 335.7831  24.2102 14.47175679873493"
      },
      "geometry": {
        "type": "Point",
        "coordinates": [
          97.95533684649082,
          -31.10456313542613
        ]
      }
    },
    {
      "type": "Feature",
      "properties": {
        "norad_id": 34852,
        "name": "COSMOS 2251 DEB",
        "group": "cosmos-2251-debris",
        "lat": 39.03168266438922,
        "lon": -77.47864382275726,
        "alt_km": 755.0108934340979,
        "timestamp": "2025-12-09T09:46:48.040994+00:00",
        "meta_object_name": "COSMOS 2251 DEB",
        "meta_object_id": "1993-036ABW",
        "meta_epoch": "2025-12-09T02:54:27.213120",
        "meta_mean_motion": 14.36999998,
        "meta_eccentricity": 0.0016002,
        "meta_inclination": 74.0329,
        "meta_ra_of_asc_node": 269.6264,
        "meta_arg_of_pericenter": 13.5373,
        "meta_mean_anomaly": 346.6206,
        "meta_ephemeris_type": 0,
        "meta_classification_type": "U",
        "meta_norad_cat_id": 34852,
        "meta_element_set_no": 999,
        "meta_rev_at_epoch": 87482,
        "meta_bstar": 0.00018981,
        "meta_mean_motion_dot": 5.37e-06,
        "meta_mean_motion_ddot": 0,
        "tle_line1": "1 34852U 93036ABW 25343.12114830  .00000537  00000+0  18981-3 0  9994",
        "tle_line2": "2 34852  74.0329 269.6264 0016002  13.5373 346.6206 14.36999998874828"
      },
      "geometry": {
        "type": "Point",
        "coordinates": [
          -77.47864382275726,
          39.03168266438922
        ]
      }
    },
    {
      "type": "Feature",
      "properties": {
        "norad_id": 34854,
        "name": "COSMOS 2251 DEB",
        "group": "cosmos-2251-debris",
        "lat": -9.002634527551047,
        "lon": -12.285036601685343,
        "alt_km": 642.1233103414124,
        "timestamp": "2025-12-09T09:46:48.041004+00:00",
        "meta_object_name": "COSMOS 2251 DEB",
        "meta_object_id": "1993-036ABY",
        "meta_epoch": "2025-12-08T21:32:11.223168",
        "meta_mean_motion": 14.76567375,
        "meta_eccentricity": 0.0066196,
        "meta_inclination": 74.0284,
        "meta_ra_of_asc_node": 166.1138,
        "meta_arg_of_pericenter": 278.5494,
        "meta_mean_anomaly": 80.8182,
        "meta_ephemeris_type": 0,
        "meta_classification_type": "U",
        "meta_norad_cat_id": 34854,
        "meta_element_set_no": 999,
        "meta_rev_at_epoch": 71825,
        "meta_bstar": 0.0007938,
        "meta_mean_motion_dot": 5.711e-05,
        "meta_mean_motion_ddot": 0,
        "tle_line1": "1 34854U 93036ABY 25342.89735212  .00005711  00000+0  79380-3 0  9991",
        "tle_line2": "2 34854  74.0284 166.1138 0066196 278.5494  80.8182 14.76567375718255"
      },
      "geometry": {
        "type": "Point",
        "coordinates": [
          -12.285036601685343,
          -9.002634527551047
        ]
      }
    },
    {
      "type": "Feature",
      "properties": {
        "norad_id": 34856,
        "name": "COSMOS 2251 DEB",
        "group": "cosmos-2251-debris",
        "lat": -73.77035877669283,
        "lon": 11.375622671197057,
        "alt_km": 538.7296796089222,
        "timestamp": "2025-12-09T09:46:48.041015+00:00",
        "meta_object_name": "COSMOS 2251 DEB",
        "meta_object_id": "1993-036ACA",
        "meta_epoch": "2025-12-07T07:16:15.266208",
        "meta_mean_motion": 15.05609422,
        "meta_eccentricity": 0.00340835,
        "meta_inclination": 73.9995,
        "meta_ra_of_asc_node": 96.0289,
        "meta_arg_of_pericenter": 234.6289,
        "meta_mean_anomaly": 154.9429,
        "meta_ephemeris_type": 0,
        "meta_classification_type": "U",
        "meta_norad_cat_id": 34856,
        "meta_element_set_no": 999,
        "meta_rev_at_epoch": 89030,
        "meta_bstar": 0.0029359125,
        "meta_mean_motion_dot": 0.00043129,
        "meta_mean_motion_ddot": 0,
        "tle_line1": "1 34856U 93036ACA 25341.30295447  .00043129  00000+0  29359-2 0  9994",
        "tle_line2": "2 34856  73.9995  96.0289 0034083 234.6289 154.9429 15.05609422890304"
      },
      "geometry": {
        "type": "Point",
        "coordinates": [
          11.375622671197057,
          -73.77035877669283
        ]
      }
    },
    {
      "type": "Feature",
      "properties": {
        "norad_id": 34857,
        "name": "COSMOS 2251 DEB",
        "group": "cosmos-2251-debris",
        "lat": 51.48016291038626,
        "lon": -87.92072386092663,
        "alt_km": 709.5896034119869,
        "timestamp": "2025-12-09T09:46:48.041025+00:00",
        "meta_object_name": "COSMOS 2251 DEB",
        "meta_object_id": "1993-036ACB",
        "meta_epoch": "2025-12-08T10:25:24.353760",
        "meta_mean_motion": 14.58817538,
        "meta_eccentricity": 0.00660207,
        "meta_inclination": 74.0156,
        "meta_ra_of_asc_node": 115.0408,
        "meta_arg_of_pericenter": 240.2546,
        "meta_mean_anomaly": 177.0237,
        "meta_ephemeris_type": 0,
        "meta_classification_type": "U",
        "meta_norad_cat_id": 34857,
        "meta_element_set_no": 999,
        "meta_rev_at_epoch": 87838,
        "meta_bstar": 0.0017018109,
        "meta_mean_motion_dot": 8.182e-05,
        "meta_mean_motion_ddot": 0,
        "tle_line1": "1 34857U 93036ACB 25342.43430965  .00008182  00000+0  17018-2 0  9995",
        "tle_line2": "2 34857  74.0156 115.0408 0066020 240.2546 177.0237 14.58817538878389"
      },
      "geometry": {
        "type": "Point",
        "coordinates": [
          -87.92072386092663,
          51.48016291038626
        ]
      }
    },
    {
      "type": "Feature",
      "properties": {
        "norad_id": 34859,
        "name": "COSMOS 2251 DEB",
        "group": "cosmos-2251-debris",
        "lat": 43.59592845770256,
        "lon": 150.76482229989037,
        "alt_km": 522.6734215689339,
        "timestamp": "2025-12-09T09:46:48.041036+00:00",
        "meta_object_name": "COSMOS 2251 DEB",
        "meta_object_id": "1993-036ACD",
        "meta_epoch": "2025-12-08T11:32:59.096256",
        "meta_mean_motion": 15.13637919,
        "meta_eccentricity": 0.00030343,
        "meta_inclination": 74.0307,
        "meta_ra_of_asc_node": 348.5102,
        "meta_arg_of_pericenter": 325.5019,
        "meta_mean_anomaly": 163.1698,
        "meta_ephemeris_type": 0,
        "meta_classification_type": "U",
        "meta_norad_cat_id": 34859,
        "meta_element_set_no": 999,
        "meta_rev_at_epoch": 88294,
        "meta_bstar": 0.0055058518,
        "meta_mean_motion_dot": 0.00100346,
        "meta_mean_motion_ddot": 0,
        "tle_line1": "1 34859U 93036ACD 25342.48123954  .00100346  00000+0  55059-2 0  9991",
        "tle_line2": "2 34859  74.0307 348.5102 0003034 325.5019 163.1698 15.13637919882940"
      },
      "geometry": {
        "type": "Point",
        "coordinates": [
          150.76482229989037,
          43.59592845770256
        ]
      }
    },
    {
      "type": "Feature",
      "properties": {
        "norad_id": 34861,
        "name": "COSMOS 2251 DEB",
        "group": "cosmos-2251-debris",
        "lat": -3.283529316037909,
        "lon": -121.40084451049677,
        "alt_km": 565.6501509241098,
        "timestamp": "2025-12-09T09:46:48.041046+00:00",
        "meta_object_name": "COSMOS 2251 DEB",
        "meta_object_id": "1993-036ACF",
        "meta_epoch": "2025-12-08T16:03:17.309376",
        "meta_mean_motion": 15.02178705,
        "meta_eccentricity": 0.00064901,
        "meta_inclination": 74.019,
        "meta_ra_of_asc_node": 59.1641,
        "meta_arg_of_pericenter": 60.5092,
        "meta_mean_anomaly": 90.3839,
        "meta_ephemeris_type": 0,
        "meta_classification_type": "U",
        "meta_norad_cat_id": 34861,
        "meta_element_set_no": 999,
        "meta_rev_at_epoch": 88031,
        "meta_bstar": 0.0031768662,
        "meta_mean_motion_dot": 0.00042072,
        "meta_mean_motion_ddot": 0,
        "tle_line1": "1 34861U 93036ACF 25342.66895034  .00042072  00000+0  31769-2 0  9992",
        "tle_line2": "2 34861  74.0190  59.1641 0006490  60.5092  90.3839 15.02178705880310"
      },
      "geometry": {
        "type": "Point",
        "coordinates": [
          -121.40084451049677,
          -3.283529316037909
        ]
      }
    }
  ]
}